OBJECT_NAME,OBJECT_ID,EPOCH,MEAN_MOTION,ECCENTRICITY,INCLINATION,RA_OF_ASC_NODE,ARG_OF_PERICENTER,MEAN_ANOMALY,EPHEMERIS_TYPE,CLASSIFICATION_TYPE,NORAD_CAT_ID,ELEMENT_SET_NO,REV_AT_EPOCH,BSTAR,MEAN_MOTION_DOT,MEAN_MOTION_DDOT
SES-2,2011-049A,2026-07-14T05:24:05.043168,1.00270429,.0002697,0.1255,91.1704,22.4608,172.4742,0,U,37809,999,5423,0,-.202E-5,0
ARABSAT-5C,2011-049B,2026-07-14T03:14:46.610016,1.00270993,.0003519,0.0496,17.8398,111.1055,231.7331,0,U,37810,999,5430,0,.117E-5,0
EUTELSAT 7 WEST A,2011-051A,2026-07-14T03:07:02.349984,1.00270693,.0004561,0.0631,345.2872,142.2891,203.8531,0,U,37816,999,5414,0,-.67E-6,0
QUETZSAT 1,2011-054A,2026-07-14T04:32:40.779168,1.00271376,.0002564,0.0099,32.9306,89.3048,160.9988,0,U,37826,999,5014,0,-.248E-5,0
INTELSAT 18 (IS-18),2011-056A,2026-07-14T04:00:27.230112,1.00270416,.0001674,0.0148,346.4700,138.2925,47.3746,0,U,37834,999,5408,0,.46E-6,0
EUTELSAT 16A,2011-057A,2026-07-14T03:13:39.217152,1.00273452,.0005811,0.0393,17.0564,92.6919,246.6640,0,U,37836,999,760,0,.98E-6,0
VIASAT-1,2011-059A,2026-07-14T02:36:14.471712,1.00268406,.0002228,0.0250,48.8486,66.7746,100.3087,0,U,37843,999,4759,0,0,0
ASIASAT 7,2011-069A,2026-07-13T13:57:56.269728,1.00272720,.00012062,0.0149,47.6580,34.5800,164.2101,0,U,37933,999,4512,0,-.338E-5,0
BEIDOU-2 IGSO-5,2011-073A,2026-07-02T17:30:18.330912,1.00270596,.01145273,47.6496,271.3544,222.0502,141.5350,0,U,37948,999,5329,0,-.128E-5,0
LUCH-5A,2011-074B,2026-07-13T14:26:06.144864,1.00272911,.0002571,8.8185,73.4181,60.0568,181.5058,0,U,37951,999,5331,0,-.61E-6,0
NIGCOMSAT 1R,2011-077A,2026-07-14T03:21:15.988032,1.00270150,.0002615,0.0267,116.9100,231.3478,36.5479,0,U,38014,999,5322,0,.139E-5,0
WGS F4 (USA 233),2012-003A,2026-07-13T19:01:02.102016,1.00269893,.0000745,0.0279,53.8593,107.4416,144.0532,0,U,38070,999,4441,0,0,0
SES-4,2012-007A,2026-07-14T03:02:47.756832,1.00269971,.0002448,0.0188,61.9615,53.1902,200.5398,0,U,38087,999,5249,0,-.175E-5,0
BEIDOU-2 G5,2012-008A,2026-07-14T03:25:53.045184,1.00269886,.0007321,3.6378,69.5207,268.8070,63.8181,0,U,38091,999,5263,0,.48E-6,0
MUOS-1,2012-009A,2026-07-14T04:50:23.557056,1.00271849,.0056954,5.5295,47.1180,3.4351,214.1613,0,U,38093,999,5271,0,-.137E-5,0
INTELSAT 22 (IS-22),2012-011A,2026-07-14T03:29:37.686048,1.00272331,.0001849,0.0132,29.1034,92.7719,294.6365,0,U,38098,999,745,0,-.65E-6,0
APSTAR-7,2012-013A,2026-07-14T03:30:52.567200,1.00271000,.0002932,0.0169,83.7379,41.0404,296.4567,0,U,38107,999,5207,0,-.108E-5,0
YAHSAT 1B,2012-016A,2026-07-13T01:42:49.313376,1.00273295,.00034999,0.0884,88.7099,45.3416,230.2049,0,U,38245,999,4586,0,.124E-5,0
AEHF-2 (USA 235),2012-019A,2026-07-13T20:13:45.524064,1.00272341,.0002216,6.7102,57.2867,55.9352,105.4396,0,U,38254,999,725,0,-.145E-5,0
JCSAT-13,2012-023A,2026-07-13T20:53:49.989408,1.00275372,.0002635,0.0177,5.0466,118.1203,246.0401,0,U,38331,999,5180,0,-.361E-5,0
VINASAT-2,2012-023B,2026-07-13T13:49:39.213120,1.00271094,.0002108,0.0130,0.7994,114.6059,155.3055,0,U,38332,999,4692,0,-.333E-5,0
NIMIQ 6,2012-026A,2026-07-13T21:35:08.528064,1.00271211,.0002527,0.0163,25.7065,88.7668,49.9765,0,U,38342,999,5068,0,-.179E-5,0
ZHONGXING-2A,2012-028A,2026-07-14T01:54:12.691584,1.00270937,.0001397,1.5208,83.5305,37.9689,297.2564,0,U,38352,999,5156,0,-.3E-5,0
INTELSAT 19 (IS-19),2012-030A,2026-07-14T02:13:48.313056,1.00271269,.0003167,0.0150,46.4692,82.4553,2.4819,0,U,38356,999,5072,0,-.63E-6,0
ECHOSTAR 17,2012-035A,2026-07-13T07:29:52.916064,1.00271168,.0002068,0.0038,99.8957,10.3898,186.2739,0,U,38551,999,5132,0,-.78E-6,0
METEOSAT-10 (MSG-3),2012-035B,2026-07-13T22:01:07.660992,1.00270523,.0001105,4.7328,60.8864,16.8422,184.3905,0,U,38552,999,5112,0,-.16E-6,0
SES-5,2012-036A,2026-07-14T01:27:52.716384,1.00271811,.0001977,0.0474,318.3877,158.0260,202.4607,0,U,38652,999,4472,0,.28E-6,0
INTELSAT 20 (IS-20),2012-043A,2026-07-14T03:28:37.782336,1.00272807,.0001326,0.0111,61.3079,111.3237,240.0384,0,U,38740,999,5101,0,-.31E-6,0
HYLAS 2,2012-043B,2026-07-14T04:28:16.955904,1.00270672,.0002386,2.4946,80.7392,57.0762,148.7275,0,U,38741,999,5104,0,-.266E-5,0
INTELSAT 21 (IS-21),2012-045A,2026-07-14T04:34:21.272736,1.00263192,.0001279,0.0563,254.8538,255.5602,152.2105,0,U,38749,999,5079,0,-.291E-5,0
ASTRA 2F,2012-051A,2026-07-14T03:17:08.882304,1.00268347,.0002869,0.0927,256.6715,287.8880,184.9013,0,U,38778,999,4140,0,.143E-5,0
GSAT-10,2012-051B,2026-07-14T03:32:44.887200,1.00273222,.0007363,0.0946,265.0074,189.3759,333.7977,0,U,38779,999,5036,0,-.171E-5,0
