SES-2                   
1 37809U 11049A   26195.22505837 -.00000202  00000+0  00000+0 0  9990
2 37809   0.1255  91.1704 0002697  22.4608 172.4742  1.00270429 54236
ARABSAT-5C              
1 37810U 11049B   26195.13526169  .00000117  00000+0  00000+0 0  9997
2 37810   0.0496  17.8398 0003519 111.1055 231.7331  1.00270993 54301
EUTELSAT 7 WEST A       
1 37816U 11051A   26195.12988831 -.00000067  00000+0  00000+0 0  9998
2 37816   0.0631 345.2872 0004561 142.2891 203.8531  1.00270693 54145
QUETZSAT 1              
1 37826U 11054A   26195.18936087 -.00000248  00000+0  00000+0 0  9995
2 37826   0.0099  32.9306 0002564  89.3048 160.9988  1.00271376 50146
INTELSAT 18 (IS-18)     
1 37834U 11056A   26195.16698183  .00000046  00000+0  00000+0 0  9991
2 37834   0.0148 346.4700 0001674 138.2925  47.3746  1.00270416 54081
EUTELSAT 16A            
1 37836U 11057A   26195.13448168  .00000098  00000+0  00000+0 0  9994
2 37836   0.0393  17.0564 0005811  92.6919 246.6640  1.00273452  7603
VIASAT-1                
1 37843U 11059A   26195.10850083  .00000000  00000+0  00000+0 0  9997
2 37843   0.0250  48.8486 0002228  66.7746 100.3087  1.00268406 47593
ASIASAT 7               
1 37933U 11069A   26194.58190127 -.00000338  00000+0  00000+0 0  9990
2 37933   0.0149  47.6580 0001206  34.5800 164.2101  1.00272720 45128
BEIDOU-2 IGSO-5         
1 37948U 11073A   26183.72937883 -.00000128  00000+0  00000+0 0  9990
2 37948  47.6496 271.3544 0114527 222.0502 141.5350  1.00270596 53296
LUCH-5A                 
1 37951U 11074B   26194.60146001 -.00000061  00000+0  00000+0 0  9994
2 37951   8.8185  73.4181 0002571  60.0568 181.5058  1.00272911 53314
NIGCOMSAT 1R            
1 38014U 11077A   26195.13976838  .00000139  00000+0  00000+0 0  9991
2 38014   0.0267 116.9100 0002615 231.3478  36.5479  1.00270150 53225
WGS F4 (USA 233)        
1 38070U 12003A   26194.79238544  .00000000  00000+0  00000+0 0  9996
2 38070   0.0279  53.8593 0000745 107.4416 144.0532  1.00269893 44410
SES-4                   
1 38087U 12007A   26195.12694163 -.00000175  00000+0  00000+0 0  9993
2 38087   0.0188  61.9615 0002448  53.1902 200.5398  1.00269971 52493
BEIDOU-2 G5             
1 38091U 12008A   26195.14297506  .00000048  00000+0  00000+0 0  9999
2 38091   3.6378  69.5207 0007321 268.8070  63.8181  1.00269886 52636
MUOS-1                  
1 38093U 12009A   26195.20166154 -.00000137  00000+0  00000+0 0  9993
2 38093   5.5295  47.1180 0056954   3.4351 214.1613  1.00271849 52712
INTELSAT 22 (IS-22)     
1 38098U 12011A   26195.14557507 -.00000065  00000+0  00000+0 0  9990
2 38098   0.0132  29.1034 0001849  92.7719 294.6365  1.00272331  7452
APSTAR-7                
1 38107U 12013A   26195.14644175 -.00000108  00000+0  00000+0 0  9999
2 38107   0.0169  83.7379 0002932  41.0404 296.4567  1.00271000 52077
YAHSAT 1B               
1 38245U 12016A   26194.07140409  .00000124  00000+0  00000+0 0  9994
2 38245   0.0884  88.7099 0003499  45.3416 230.2049  1.00273295 45865
AEHF-2 (USA 235)        
1 38254U 12019A   26194.84288801 -.00000145  00000+0  00000+0 0  9995
2 38254   6.7102  57.2867 0002216  55.9352 105.4396  1.00272341  7257
JCSAT-13                
1 38331U 12023A   26194.87071747 -.00000361  00000+0  00000+0 0  9998
2 38331   0.0177   5.0466 0002635 118.1203 246.0401  1.00275372 51806
VINASAT-2               
1 38332U 12023B   26194.57614830 -.00000333  00000+0  00000+0 0  9991
2 38332   0.0130   0.7994 0002108 114.6059 155.3055  1.00271094 46920
NIMIQ 6                 
1 38342U 12026A   26194.89940426 -.00000179  00000+0  00000+0 0  9991
2 38342   0.0163  25.7065 0002527  88.7668  49.9765  1.00271211 50680
ZHONGXING-2A            
1 38352U 12028A   26195.07931356 -.00000300  00000+0  00000+0 0  9993
2 38352   1.5208  83.5305 0001397  37.9689 297.2564  1.00270937 51566
INTELSAT 19 (IS-19)     
1 38356U 12030A   26195.09292029 -.00000063  00000+0  00000+0 0  9995
2 38356   0.0150  46.4692 0003167  82.4553   2.4819  1.00271269 50724
ECHOSTAR 17             
1 38551U 12035A   26194.31241801 -.00000078  00000+0  00000+0 0  9999
2 38551   0.0038  99.8957 0002068  10.3898 186.2739  1.00271168 51320
METEOSAT-10 (MSG-3)     
1 38552U 12035B   26194.91744978 -.00000016  00000+0  00000+0 0  9991
2 38552   4.7328  60.8864 0001105  16.8422 184.3905  1.00270523 51120
SES-5                   
1 38652U 12036A   26195.06102681  .00000028  00000+0  00000+0 0  9991
2 38652   0.0474 318.3877 0001977 158.0260 202.4607  1.00271811 44723
INTELSAT 20 (IS-20)     
1 38740U 12043A   26195.14488174 -.00000031  00000+0  00000+0 0  9995
2 38740   0.0111  61.3079 0001326 111.3237 240.0384  1.00272807 51018
HYLAS 2                 
1 38741U 12043B   26195.18630736 -.00000266  00000+0  00000+0 0  9993
2 38741   2.4946  80.7392 0002386  57.0762 148.7275  1.00270672 51044
INTELSAT 21 (IS-21)     
1 38749U 12045A   26195.19052399 -.00000291  00000+0  00000+0 0  9995
2 38749   0.0563 254.8538 0001279 255.5602 152.2105  1.00263192 50797
ASTRA 2F                
1 38778U 12051A   26195.13690836  .00000143  00000+0  00000+0 0  9997
2 38778   0.0927 256.6715 0002869 287.8880 184.9013  1.00268347 41407
GSAT-10                 
1 38779U 12051B   26195.14774175 -.00000171  00000+0  00000+0 0  9990
2 38779   0.0946 265.0074 0007363 189.3759 333.7977  1.00273222 50362
